{
  "norad_id": 47303,
  "name": "WEINA 2",
  "history": [
    {
      "epoch": "2026-03-28T21:47:14.136000Z",
      "apogee_km": 679.9767640072951,
      "perigee_km": 674.8534454019855,
      "latitude_deg": -5.296069105141607e-05,
      "longitude_deg": -174.4060994403044,
      "height_km": 680.268457277137,
      "semi_major_axis_km": 7055.55210470464,
      "eccentricity": 0.00036307,
      "inclination_deg": 98.0638,
      "raan_deg": 338.7243,
      "arg_perigee_deg": 86.9503,
      "mean_anomaly_deg": 273.2115,
      "mean_motion_rev_day": 14.64894191
    },
    {
      "epoch": "2026-03-29T04:20:40.368192Z",
      "apogee_km": 679.9731254596518,
      "perigee_km": 674.8507969138309,
      "latitude_deg": -7.905707918132783e-06,
      "longitude_deg": 87.23309527039928,
      "height_km": 680.2284637352172,
      "semi_major_axis_km": 7055.5489611867415,
      "eccentricity": 0.000363,
      "inclination_deg": 98.0637,
      "raan_deg": 338.9921,
      "arg_perigee_deg": 86.1239,
      "mean_anomaly_deg": 274.0379,
      "mean_motion_rev_day": 14.6489517
    }
  ]
}